{"type":"FeatureCollection","features":[{"type":"Feature","properties":{"name":"P1"},"geometry":{"type":"LineString","coordinates":[[112.711489,-7.13963],[112.712049,-7.13963],[112.712049,-7.14019],[112.711489,-7.14019],[112.711489,-7.13963]]}},{"type":"Feature","properties":{"name":"P2"},"geometry":{"type":"LineString","coordinates":[[112.711489,-7.14043],[112.712049,-7.14043],[112.712049,-7.14099],[112.711489,-7.14099],[112.711489,-7.14043]]}},{"type":"Feature","properties":{"name":"P3"},"geometry":{"type":"LineString","coordinates":[[112.711489,-7.14123],[112.712049,-7.14123],[112.712049,-7.14179],[112.711489,-7.14179],[112.711489,-7.14123]]}},{"type":"Feature","properties":{"name":"P4"},"geometry":{"type":"LineString","coordinates":[[112.712289,-7.14043],[112.712849,-7.14043],[112.712849,-7.14099],[112.712289,-7.14099],[112.712289,-7.14043]]}},{"type":"Feature","properties":{"name":"P5"},"geometry":{"type":"LineString","coordinates":[[112.712289,-7.14123],[112.712849,-7.14123],[112.712849,-7.14179],[112.712289,-7.14179],[112.712289,-7.14123]]}},{"type":"Feature","properties":{"name":"P6"},"geometry":{"type":"LineString","coordinates":[[112.712289,-7.14203],[112.712849,-7.14203],[112.712849,-7.14259],[112.712289,-7.14259],[112.712289,-7.14203]]}},{"type":"Feature","properties":{"name":"P7"},"geometry":{"type":"LineString","coordinates":[[112.713089,-7.14043],[112.713649,-7.14043],[112.713649,-7.14099],[112.713089,-7.14099],[112.713089,-7.14043]]}},{"type":"Feature","properties":{"name":"P8"},"geometry":{"type":"LineString","coordinates":[[112.713089,-7.14123],[112.713649,-7.14123],[112.713649,-7.14179],[112.713089,-7.14179],[112.713089,-7.14123]]}},{"type":"Feature","properties":{"name":"P9"},"geometry":{"type":"LineString","coordinates":[[112.713089,-7.14203],[112.713649,-7.14203],[112.713649,-7.14259],[112.713089,-7.14259],[112.713089,-7.14203]]}},{"type":"Feature","properties":{"name":"P10"},"geometry":{"type":"LineString","coordinates":[[112.713889,-7.14363],[112.714449,-7.14363],[112.714449,-7.14419],[112.713889,-7.14419],[112.713889,-7.14363]]}},{"type":"Feature","properties":{"name":"P11"},"geometry":{"type":"LineString","coordinates":[[112.713889,-7.14443],[112.714449,-7.14443],[112.714449,-7.14499],[112.713889,-7.14499],[112.713889,-7.14443]]}},{"type":"Feature","properties":{"name":"P12"},"geometry":{"type":"LineString","coordinates":[[112.714689,-7.14283],[112.715249,-7.14283],[112.715249,-7.14339],[112.714689,-7.14339],[112.714689,-7.14283]]}},{"type":"Feature","properties":{"name":"P13"},"geometry":{"type":"LineString","coordinates":[[112.714689,-7.14363],[112.715249,-7.14363],[112.715249,-7.14419],[112.714689,-7.14419],[112.714689,-7.14363]]}},{"type":"Feature","properties":{"name":"P14"},"geometry":{"type":"LineString","coordinates":[[112.714689,-7.14443],[112.715249,-7.14443],[112.715249,-7.14499],[112.714689,-7.14499],[112.714689,-7.14443]]}},{"type":"Feature","properties":{"name":"P15"},"geometry":{"type":"LineString","coordinates":[[112.715489,-7.14443],[112.716049,-7.14443],[112.716049,-7.14499],[112.715489,-7.14499],[112.715489,-7.14443]]}},{"type":"Feature","properties":{"name":"P16"},"geometry":{"type":"LineString","coordinates":[[112.715489,-7.14523],[112.716049,-7.14523],[112.716049,-7.14579],[112.715489,-7.14579],[112.715489,-7.14523]]}},{"type":"Feature","properties":{"name":"P17"},"geometry":{"type":"LineString","coordinates":[[112.716289,-7.14363],[112.716849,-7.14363],[112.716849,-7.14419],[112.716289,-7.14419],[112.716289,-7.14363]]}},{"type":"Feature","properties":{"name":"P18"},"geometry":{"type":"LineString","coordinates":[[112.716289,-7.14443],[112.716849,-7.14443],[112.716849,-7.14499],[112.716289,-7.14499],[112.716289,-7.14443]]}},{"type":"Feature","properties":{"name":"P19"},"geometry":{"type":"LineString","coordinates":[[112.716289,-7.14523],[112.716849,-7.14523],[112.716849,-7.14579],[112.716289,-7.14579],[112.716289,-7.14523]]}},{"type":"Feature","properties":{"name":"P20"},"geometry":{"type":"LineString","coordinates":[[112.717089,-7.14363],[112.717649,-7.14363],[112.717649,-7.14419],[112.717089,-7.14419],[112.717089,-7.14363]]}},{"type":"Feature","properties":{"name":"P21"},"geometry":{"type":"LineString","coordinates":[[112.717089,-7.14523],[112.717649,-7.14523],[112.717649,-7.14579],[112.717089,-7.14579],[112.717089,-7.14523]]}},{"type":"Feature","properties":{"name":"P22"},"geometry":{"type":"LineString","coordinates":[[112.717889,-7.14363],[112.718449,-7.14363],[112.718449,-7.14419],[112.717889,-7.14419],[112.717889,-7.14363]]}},{"type":"Feature","properties":{"name":"P23"},"geometry":{"type":"LineString","coordinates":[[112.717889,-7.14443],[112.718449,-7.14443],[112.718449,-7.14499],[112.717889,-7.14499],[112.717889,-7.14443]]}},{"type":"Feature","properties":{"name":"P24"},"geometry":{"type":"LineString","coordinates":[[112.717889,-7.14523],[112.718449,-7.14523],[112.718449,-7.14579],[112.717889,-7.14579],[112.717889,-7.14523]]}},{"type":"Feature","properties":{"name":"P25"},"geometry":{"type":"LineString","coordinates":[[112.717889,-7.14603],[112.718449,-7.14603],[112.718449,-7.14659],[112.717889,-7.14659],[112.717889,-7.14603]]}},{"type":"Feature","properties":{"name":"P26"},"geometry":{"type":"LineString","coordinates":[[112.718689,-7.14523],[112.719249,-7.14523],[112.719249,-7.14579],[112.718689,-7.14579],[112.718689,-7.14523]]}},{"type":"Feature","properties":{"name":"P27"},"geometry":{"type":"LineString","coordinates":[[112.718689,-7.14603],[112.719249,-7.14603],[112.719249,-7.14659],[112.718689,-7.14659],[112.718689,-7.14603]]}},{"type":"Feature","properties":{"name":"P28"},"geometry":{"type":"LineString","coordinates":[[112.719489,-7.14443],[112.720049,-7.14443],[112.720049,-7.14499],[112.719489,-7.14499],[112.719489,-7.14443]]}},{"type":"Feature","properties":{"name":"P29"},"geometry":{"type":"LineString","coordinates":[[112.719489,-7.14523],[112.720049,-7.14523],[112.720049,-7.14579],[112.719489,-7.14579],[112.719489,-7.14523]]}},{"type":"Feature","properties":{"name":"P30"},"geometry":{"type":"LineString","coordinates":[[112.719489,-7.14603],[112.720049,-7.14603],[112.720049,-7.14659],[112.719489,-7.14659],[112.719489,-7.14603]]}},{"type":"Feature","properties":{"name":"P31"},"geometry":{"type":"LineString","coordinates":[[112.720289,-7.14523],[112.720849,-7.14523],[112.720849,-7.14579],[112.720289,-7.14579],[112.720289,-7.14523]]}},{"type":"Feature","properties":{"name":"P32"},"geometry":{"type":"LineString","coordinates":[[112.720289,-7.14603],[112.720849,-7.14603],[112.720849,-7.14659],[112.720289,-7.14659],[112.720289,-7.14603]]}},{"type":"Feature","properties":{"name":"P33"},"geometry":{"type":"LineString","coordinates":[[112.720289,-7.14683],[112.720849,-7.14683],[112.720849,-7.14739],[112.720289,-7.14739],[112.720289,-7.14683]]}},{"type":"Feature","properties":{"name":"P34"},"geometry":{"type":"LineString","coordinates":[[112.721089,-7.14443],[112.721649,-7.14443],[112.721649,-7.14499],[112.721089,-7.14499],[112.721089,-7.14443]]}},{"type":"Feature","properties":{"name":"P35"},"geometry":{"type":"LineString","coordinates":[[112.721089,-7.14523],[112.721649,-7.14523],[112.721649,-7.14579],[112.721089,-7.14579],[112.721089,-7.14523]]}},{"type":"Feature","properties":{"name":"P36"},"geometry":{"type":"LineString","coordinates":[[112.721089,-7.14603],[112.721649,-7.14603],[112.721649,-7.14659],[112.721089,-7.14659],[112.721089,-7.14603]]}},{"type":"Feature","properties":{"name":"P37"},"geometry":{"type":"LineString","coordinates":[[112.721889,-7.14443],[112.722449,-7.14443],[112.722449,-7.14499],[112.721889,-7.14499],[112.721889,-7.14443]]}},{"type":"Feature","properties":{"name":"P38"},"geometry":{"type":"LineString","coordinates":[[112.721889,-7.14523],[112.722449,-7.14523],[112.722449,-7.14579],[112.721889,-7.14579],[112.721889,-7.14523]]}},{"type":"Feature","properties":{"name":"P39"},"geometry":{"type":"LineString","coordinates":[[112.721889,-7.14603],[112.722449,-7.14603],[112.722449,-7.14659],[112.721889,-7.14659],[112.721889,-7.14603]]}},{"type":"Feature","properties":{"name":"P40"},"geometry":{"type":"LineString","coordinates":[[112.721889,-7.14683],[112.722449,-7.14683],[112.722449,-7.14739],[112.721889,-7.14739],[112.721889,-7.14683]]}},{"type":"Feature","properties":{"name":"P41"},"geometry":{"type":"LineString","coordinates":[[112.722689,-7.14443],[112.723249,-7.14443],[112.723249,-7.14499],[112.722689,-7.14499],[112.722689,-7.14443]]}},{"type":"Feature","properties":{"name":"P42"},"geometry":{"type":"LineString","coordinates":[[112.722689,-7.14603],[112.723249,-7.14603],[112.723249,-7.14659],[112.722689,-7.14659],[112.722689,-7.14603]]}},{"type":"Feature","properties":{"name":"P43"},"geometry":{"type":"LineString","coordinates":[[112.722689,-7.14683],[112.723249,-7.14683],[112.723249,-7.14739],[112.722689,-7.14739],[112.722689,-7.14683]]}},{"type":"Feature","properties":{"name":"P44"},"geometry":{"type":"LineString","coordinates":[[112.723489,-7.14443],[112.724049,-7.14443],[112.724049,-7.14499],[112.723489,-7.14499],[112.723489,-7.14443]]}},{"type":"Feature","properties":{"name":"P45"},"geometry":{"type":"LineString","coordinates":[[112.723489,-7.14523],[112.724049,-7.14523],[112.724049,-7.14579],[112.723489,-7.14579],[112.723489,-7.14523]]}},{"type":"Feature","properties":{"name":"P46"},"geometry":{"type":"LineString","coordinates":[[112.723489,-7.14603],[112.724049,-7.14603],[112.724049,-7.14659],[112.723489,-7.14659],[112.723489,-7.14603]]}},{"type":"Feature","properties":{"name":"P47"},"geometry":{"type":"LineString","coordinates":[[112.723489,-7.14683],[112.724049,-7.14683],[112.724049,-7.14739],[112.723489,-7.14739],[112.723489,-7.14683]]}},{"type":"Feature","properties":{"name":"P48"},"geometry":{"type":"LineString","coordinates":[[112.724289,-7.14523],[112.724849,-7.14523],[112.724849,-7.14579],[112.724289,-7.14579],[112.724289,-7.14523]]}},{"type":"Feature","properties":{"name":"P49"},"geometry":{"type":"LineString","coordinates":[[112.724289,-7.14603],[112.724849,-7.14603],[112.724849,-7.14659],[112.724289,-7.14659],[112.724289,-7.14603]]}},{"type":"Feature","properties":{"name":"P50"},"geometry":{"type":"LineString","coordinates":[[112.724289,-7.14683],[112.724849,-7.14683],[112.724849,-7.14739],[112.724289,-7.14739],[112.724289,-7.14683]]}}]}