{"type":"FeatureCollection","features":[{"type":"Feature","properties":{},"geometry":{"type":"LineString","coordinates":[[112.713549,-7.138661],[112.713575,-7.138948],[112.713679,-7.138994],[112.713752,-7.138776],[112.71408,-7.138869],[112.714142,-7.138729],[112.713549,-7.138661]]}},{"type":"Feature","properties":{},"geometry":{"type":"LineString","coordinates":[[112.71373,-7.138948],[112.713997,-7.139062],[112.714077,-7.13889],[112.713802,-7.138804],[112.71373,-7.138948]]}},{"type":"Feature","properties":{},"geometry":{"type":"LineString","coordinates":[[112.714138,-7.138719],[112.714116,-7.138941],[112.714487,-7.139105],[112.714527,-7.138735],[112.714138,-7.138719]]}},{"type":"Feature","properties":{},"geometry":{"type":"LineString","coordinates":[[112.714096,-7.13896],[112.714031,-7.139091],[112.714346,-7.139338],[112.714486,-7.139149],[112.714096,-7.13896]]}},{"type":"Feature","properties":{},"geometry":{"type":"LineString","coordinates":[[112.713842,-7.1393],[112.71401,-7.139107],[112.714332,-7.139352],[112.714253,-7.139498],[112.713842,-7.1393]]}},{"type":"Feature","properties":{},"geometry":{"type":"LineString","coordinates":[[112.714323,-7.139519],[112.714308,-7.139494],[112.714536,-7.139041],[112.71453,-7.138738],[112.71488,-7.13895],[112.71494,-7.139],[112.714323,-7.139519]]}},{"type":"Feature","properties":{},"geometry":{"type":"LineString","coordinates":[[112.714432,-7.139701],[112.714323,-7.139519],[112.71494,-7.139],[112.715064,-7.139101],[112.715058,-7.139159],[112.715093,-7.139192],[112.714432,-7.139701]]}},{"type":"Feature","properties":{},"geometry":{"type":"LineString","coordinates":[[112.714527,-7.139858],[112.714432,-7.139701],[112.715093,-7.139192],[112.715155,-7.139248],[112.715208,-7.139287],[112.714527,-7.139858]]}},{"type":"Feature","properties":{},"geometry":{"type":"LineString","coordinates":[[112.714611,-7.139997],[112.714527,-7.139858],[112.715208,-7.139287],[112.7153,-7.139354],[112.715317,-7.139384],[112.714611,-7.139997]]}},{"type":"Feature","properties":{},"geometry":{"type":"LineString","coordinates":[[112.714721,-7.140181],[112.714611,-7.139997],[112.715317,-7.139384],[112.715431,-7.139579],[112.714721,-7.140181]]}},{"type":"Feature","properties":{},"geometry":{"type":"LineString","coordinates":[[112.714785,-7.140288],[112.714721,-7.140181],[112.715431,-7.139579],[112.715457,-7.139624],[112.71548,-7.139695],[112.714785,-7.140288]]}},{"type":"Feature","properties":{},"geometry":{"type":"LineString","coordinates":[[112.714902,-7.140483],[112.714785,-7.140288],[112.71548,-7.139695],[112.715545,-7.139891],[112.714902,-7.140483]]}},{"type":"Feature","properties":{},"geometry":{"type":"LineString","coordinates":[[112.714982,-7.140615],[112.714902,-7.140483],[112.715545,-7.139891],[112.715621,-7.140124],[112.715629,-7.140131],[112.714982,-7.140615]]}},{"type":"Feature","properties":{},"geometry":{"type":"LineString","coordinates":[[112.715127,-7.140856],[112.714982,-7.140615],[112.715629,-7.140131],[112.715806,-7.140295],[112.715127,-7.140856]]}},{"type":"Feature","properties":{},"geometry":{"type":"LineString","coordinates":[[112.715201,-7.140981],[112.715127,-7.140856],[112.715806,-7.140295],[112.715913,-7.140394],[112.715201,-7.140981]]}},{"type":"Feature","properties":{},"geometry":{"type":"LineString","coordinates":[[112.715154,-7.141163],[112.715201,-7.140981],[112.715913,-7.140394],[112.715999,-7.140474],[112.715154,-7.141163]]}},{"type":"Feature","properties":{},"geometry":{"type":"LineString","coordinates":[[112.715127,-7.141363],[112.715103,-7.141348],[112.715154,-7.141163],[112.715999,-7.140474],[112.71612,-7.140581],[112.715127,-7.141363]]}},{"type":"Feature","properties":{},"geometry":{"type":"LineString","coordinates":[[112.715255,-7.141444],[112.715127,-7.141363],[112.71612,-7.140581],[112.716205,-7.140653],[112.715255,-7.141444]]}},{"type":"Feature","properties":{},"geometry":{"type":"LineString","coordinates":[[112.715386,-7.141527],[112.715255,-7.141444],[112.716205,-7.140653],[112.7163,-7.140734],[112.715386,-7.141527]]}},{"type":"Feature","properties":{},"geometry":{"type":"LineString","coordinates":[[112.715765,-7.141435],[112.715426,-7.141552],[112.715386,-7.141527],[112.7163,-7.140734],[112.716439,-7.140851],[112.715765,-7.141435]]}},{"type":"Feature","properties":{},"geometry":{"type":"LineString","coordinates":[[112.716058,-7.141451],[112.715876,-7.141397],[112.715765,-7.141435],[112.716439,-7.140851],[112.716561,-7.140955],[112.716598,-7.140995],[112.716058,-7.141451]]}},{"type":"Feature","properties":{},"geometry":{"type":"LineString","coordinates":[[112.716306,-7.141575],[112.716209,-7.141496],[112.716058,-7.141451],[112.716598,-7.140995],[112.716766,-7.141181],[112.716306,-7.141575]]}},{"type":"Feature","properties":{},"geometry":{"type":"LineString","coordinates":[[112.716507,-7.141731],[112.716446,-7.141689],[112.716306,-7.141575],[112.716766,-7.141181],[112.716947,-7.141382],[112.716507,-7.141731]]}},{"type":"Feature","properties":{},"geometry":{"type":"LineString","coordinates":[[112.716876,-7.141983],[112.716507,-7.141731],[112.716947,-7.141382],[112.717227,-7.141692],[112.716876,-7.141983]]}},{"type":"Feature","properties":{},"geometry":{"type":"LineString","coordinates":[[112.717227,-7.141692],[112.717392,-7.141875],[112.71715,-7.14217],[112.716876,-7.141983],[112.717227,-7.141692]]}},{"type":"Feature","properties":{},"geometry":{"type":"LineString","coordinates":[[112.713566,-7.138624],[112.713746,-7.138633],[112.71377,-7.138019],[112.71356,-7.137977],[112.713566,-7.138624]]}},{"type":"Feature","properties":{},"geometry":{"type":"LineString","coordinates":[[112.71377,-7.138053],[112.713897,-7.138326],[112.714246,-7.138419],[112.714216,-7.138627],[112.714089,-7.138673],[112.71378,-7.138618],[112.71377,-7.138053]]}},{"type":"Feature","properties":{},"geometry":{"type":"LineString","coordinates":[[112.713791,-7.137899],[112.713786,-7.138048],[112.713907,-7.138315],[112.714242,-7.138409],[112.714368,-7.138029],[112.713791,-7.137899]]}},{"type":"Feature","properties":{},"geometry":{"type":"LineString","coordinates":[[112.714262,-7.138466],[112.714605,-7.138492],[112.714573,-7.138708],[112.71425,-7.138672],[112.714262,-7.138466]]}},{"type":"Feature","properties":{},"geometry":{"type":"LineString","coordinates":[[112.714397,-7.138035],[112.714283,-7.13842],[112.71458,-7.138462],[112.714746,-7.138462],[112.714932,-7.138158],[112.714932,-7.137944],[112.714684,-7.137921],[112.714397,-7.138035]]}},{"type":"Feature","properties":{},"geometry":{"type":"LineString","coordinates":[[112.708282,-7.135362],[112.708707,-7.135564],[112.708742,-7.134697],[112.708282,-7.134697],[112.708282,-7.135362]]}},{"type":"Feature","properties":{},"geometry":{"type":"LineString","coordinates":[[112.708707,-7.135564],[112.709245,-7.135424],[112.709301,-7.13509],[112.70924,-7.134697],[112.708742,-7.134697],[112.708707,-7.135564]]}},{"type":"Feature","properties":{},"geometry":{"type":"LineString","coordinates":[[112.709245,-7.135424],[112.709499,-7.135538],[112.709959,-7.135641],[112.709982,-7.134697],[112.70924,-7.134697],[112.709301,-7.13509],[112.709245,-7.135424]]}},{"type":"Feature","properties":{},"geometry":{"type":"LineString","coordinates":[[112.709959,-7.135641],[112.710207,-7.135504],[112.710387,-7.135363],[112.710387,-7.134697],[112.709982,-7.134697],[112.709959,-7.135641]]}},{"type":"Feature","properties":{},"geometry":{"type":"LineString","coordinates":[[112.708282,-7.136279],[112.708619,-7.136255],[112.708848,-7.136234],[112.708745,-7.13591],[112.708707,-7.135564],[112.708282,-7.135362],[112.708282,-7.136279]]}},{"type":"Feature","properties":{},"geometry":{"type":"LineString","coordinates":[[112.708848,-7.136234],[112.709224,-7.136339],[112.709444,-7.136292],[112.709245,-7.135424],[112.708707,-7.135564],[112.708745,-7.13591],[112.708848,-7.136234]]}},{"type":"Feature","properties":{},"geometry":{"type":"LineString","coordinates":[[112.709444,-7.136292],[112.709786,-7.136199],[112.709905,-7.135877],[112.709959,-7.135641],[112.709499,-7.135538],[112.709245,-7.135424],[112.709444,-7.136292]]}},{"type":"Feature","properties":{},"geometry":{"type":"LineString","coordinates":[[112.709786,-7.136199],[112.709962,-7.136381],[112.71059,-7.136449],[112.710817,-7.13569],[112.710369,-7.135559],[112.710387,-7.135363],[112.710207,-7.135504],[112.709959,-7.135641],[112.709905,-7.135877],[112.709786,-7.136199]]}},{"type":"Feature","properties":{},"geometry":{"type":"LineString","coordinates":[[112.708282,-7.137156],[112.708618,-7.137139],[112.708799,-7.13707],[112.708848,-7.136234],[112.708619,-7.136255],[112.708282,-7.136279],[112.708282,-7.137156]]}},{"type":"Feature","properties":{},"geometry":{"type":"LineString","coordinates":[[112.708799,-7.13707],[112.70926,-7.137353],[112.709404,-7.136492],[112.709191,-7.136494],[112.708857,-7.136438],[112.708799,-7.13707]]}},{"type":"Feature","properties":{},"geometry":{"type":"LineString","coordinates":[[112.70926,-7.137353],[112.709579,-7.137363],[112.709959,-7.137383],[112.70982,-7.136741],[112.709628,-7.136543],[112.709432,-7.136506],[112.70926,-7.137353]]}},{"type":"Feature","properties":{},"geometry":{"type":"LineString","coordinates":[[112.710055,-7.137149],[112.710211,-7.137211],[112.710319,-7.137247],[112.710452,-7.137303],[112.710644,-7.136885],[112.710769,-7.136656],[112.710676,-7.136552],[112.710575,-7.136518],[112.710579,-7.136449],[112.709962,-7.136381],[112.709786,-7.136199],[112.709885,-7.136866],[112.710029,-7.137009],[112.710057,-7.137152]]}},{"type":"Feature","properties":{},"geometry":{"type":"LineString","coordinates":[[112.708282,-7.13806],[112.70892,-7.138314],[112.708966,-7.137514],[112.708799,-7.13707],[112.708618,-7.137139],[112.708282,-7.137156],[112.708282,-7.13806]]}},{"type":"Feature","properties":{},"geometry":{"type":"LineString","coordinates":[[112.70892,-7.138314],[112.709152,-7.138274],[112.709354,-7.138321],[112.709285,-7.137715],[112.70926,-7.137353],[112.708799,-7.13707],[112.708966,-7.137514],[112.70892,-7.138314]]}},{"type":"Feature","properties":{},"geometry":{"type":"LineString","coordinates":[[112.709354,-7.138321],[112.709536,-7.138355],[112.709763,-7.138326],[112.709797,-7.137945],[112.709959,-7.137383],[112.709579,-7.137363],[112.70926,-7.137353],[112.709285,-7.137715],[112.709354,-7.138321]]}},{"type":"Feature","properties":{},"geometry":{"type":"LineString","coordinates":[[112.709763,-7.138326],[112.710387,-7.138096],[112.710508,-7.137699],[112.710566,-7.137594],[112.710488,-7.137555],[112.710524,-7.137464],[112.710566,-7.13735],[112.710355,-7.137273],[112.710266,-7.137234],[112.709959,-7.137383],[112.709797,-7.137945],[112.709763,-7.138326]]}},{"type":"Feature","properties":{},"geometry":{"type":"LineString","coordinates":[[112.708282,-7.138967],[112.708872,-7.138967],[112.708813,-7.138723],[112.70892,-7.138314],[112.708282,-7.13806],[112.708282,-7.138967]]}},{"type":"Feature","properties":{},"geometry":{"type":"LineString","coordinates":[[112.708872,-7.138967],[112.709346,-7.138967],[112.709391,-7.138663],[112.709354,-7.138321],[112.709152,-7.138274],[112.70892,-7.138314],[112.708813,-7.138723],[112.708872,-7.138967]]}},{"type":"Feature","properties":{},"geometry":{"type":"LineString","coordinates":[[112.709407,-7.138987],[112.709459,-7.138871],[112.709644,-7.138901],[112.709892,-7.138967],[112.709821,-7.138582],[112.709763,-7.138326],[112.709536,-7.138355],[112.709354,-7.138321],[112.709391,-7.138663],[112.709405,-7.138988]]}},{"type":"Feature","properties":{},"geometry":{"type":"LineString","coordinates":[[112.709892,-7.138967],[112.710192,-7.139144],[112.710464,-7.139193],[112.71056,-7.138798],[112.710623,-7.138493],[112.710503,-7.13836],[112.710383,-7.138288],[112.710387,-7.138096],[112.709763,-7.138326],[112.709821,-7.138582],[112.709892,-7.138967]]}}]}